[{"OBJECT_NAME":"ONEWEB-0658","OBJECT_ID":"2023-029Z","EPOCH":"2026-05-28T23:05:52.490112","MEAN_MOTION":13.19726328,"ECCENTRICITY":0.0001358,"INCLINATION":87.9161,"RA_OF_ASC_NODE":308.781,"ARG_OF_PERICENTER":95.9459,"MEAN_ANOMALY":264.1828,"EPHEMERIS_TYPE":0,"CLASSIFICATION_TYPE":"U","NORAD_CAT_ID":55819,"ELEMENT_SET_NO":999,"REV_AT_EPOCH":15638,"BSTAR":3.4821000000000004e-05,"MEAN_MOTION_DOT":2.7e-07,"MEAN_MOTION_DDOT":0.0},{"OBJECT_NAME":"ONEWEB-0660","OBJECT_ID":"2023-029AA","EPOCH":"2026-05-28T22:40:45.726816","MEAN_MOTION":13.14501767,"ECCENTRICITY":0.0001701,"INCLINATION":87.8953,"RA_OF_ASC_NODE":293.5334,"ARG_OF_PERICENTER":88.9311,"MEAN_ANOMALY":271.2014,"EPHEMERIS_TYPE":0,"CLASSIFICATION_TYPE":"U","NORAD_CAT_ID":55820,"ELEMENT_SET_NO":999,"REV_AT_EPOCH":15687,"BSTAR":-5.5437e-07,"MEAN_MOTION_DOT":1.3e-07,"MEAN_MOTION_DDOT":0.0},{"OBJECT_NAME":"ONEWEB-0661","OBJECT_ID":"2023-029AB","EPOCH":"2026-05-28T19:51:46.738656","MEAN_MOTION":13.14502227,"ECCENTRICITY":0.0001827,"INCLINATION":87.8935,"RA_OF_ASC_NODE":293.6048,"ARG_OF_PERICENTER":88.1445,"MEAN_ANOMALY":271.9894,"EPHEMERIS_TYPE":0,"CLASSIFICATION_TYPE":"U","NORAD_CAT_ID":55821,"ELEMENT_SET_NO":999,"REV_AT_EPOCH":15684,"BSTAR":-0.00023217,"MEAN_MOTION_DOT":-7.3e-07,"MEAN_MOTION_DDOT":0.0},{"OBJECT_NAME":"ONEWEB-0662","OBJECT_ID":"2023-029AC","EPOCH":"2026-05-28T22:31:37.243200","MEAN_MOTION":13.14501359,"ECCENTRICITY":0.0001696,"INCLINATION":87.8934,"RA_OF_ASC_NODE":293.5893,"ARG_OF_PERICENTER":89.2906,"MEAN_ANOMALY":270.8418,"EPHEMERIS_TYPE":0,"CLASSIFICATION_TYPE":"U","NORAD_CAT_ID":55822,"ELEMENT_SET_NO":999,"REV_AT_EPOCH":15690,"BSTAR":0.00032551000000000005,"MEAN_MOTION_DOT":1.33e-06,"MEAN_MOTION_DDOT":0.0},{"OBJECT_NAME":"ONEWEB-0663","OBJECT_ID":"2023-029AD","EPOCH":"2026-05-28T22:07:01.060320","MEAN_MOTION":13.20867155,"ECCENTRICITY":0.0001508,"INCLINATION":87.9183,"RA_OF_ASC_NODE":278.3423,"ARG_OF_PERICENTER":90.621,"MEAN_ANOMALY":269.5096,"EPHEMERIS_TYPE":0,"CLASSIFICATION_TYPE":"U","NORAD_CAT_ID":55823,"ELEMENT_SET_NO":999,"REV_AT_EPOCH":15860,"BSTAR":-0.0001472,"MEAN_MOTION_DOT":-4.7e-07,"MEAN_MOTION_DDOT":0.0},{"OBJECT_NAME":"ONEWEB-0664","OBJECT_ID":"2023-029AE","EPOCH":"2026-05-28T20:57:02.920608","MEAN_MOTION":13.20736173,"ECCENTRICITY":0.0002138,"INCLINATION":87.9168,"RA_OF_ASC_NODE":278.3349,"ARG_OF_PERICENTER":93.83,"MEAN_ANOMALY":266.3078,"EPHEMERIS_TYPE":0,"CLASSIFICATION_TYPE":"U","NORAD_CAT_ID":55824,"ELEMENT_SET_NO":999,"REV_AT_EPOCH":15859,"BSTAR":0.016864,"MEAN_MOTION_DOT":6.871e-05,"MEAN_MOTION_DDOT":0.0},{"OBJECT_NAME":"ONEWEB-0665","OBJECT_ID":"2023-029AF","EPOCH":"2026-05-28T21:36:49.622112","MEAN_MOTION":13.14502452,"ECCENTRICITY":0.000161,"INCLINATION":87.8936,"RA_OF_ASC_NODE":293.5711,"ARG_OF_PERICENTER":89.6617,"MEAN_ANOMALY":270.4698,"EPHEMERIS_TYPE":0,"CLASSIFICATION_TYPE":"U","NORAD_CAT_ID":55825,"ELEMENT_SET_NO":999,"REV_AT_EPOCH":15687,"BSTAR":-0.00057975,"MEAN_MOTION_DOT":-2.02e-06,"MEAN_MOTION_DDOT":0.0},{"OBJECT_NAME":"ONEWEB-0666","OBJECT_ID":"2023-029AG","EPOCH":"2026-05-28T20:47:20.441184","MEAN_MOTION":13.20769304,"ECCENTRICITY":0.0002236,"INCLINATION":87.9169,"RA_OF_ASC_NODE":278.3258,"ARG_OF_PERICENTER":117.0106,"MEAN_ANOMALY":243.1256,"EPHEMERIS_TYPE":0,"CLASSIFICATION_TYPE":"U","NORAD_CAT_ID":55826,"ELEMENT_SET_NO":999,"REV_AT_EPOCH":15860,"BSTAR":9.2426e-05,"MEAN_MOTION_DOT":5.1e-07,"MEAN_MOTION_DDOT":0.0},{"OBJECT_NAME":"ONEWEB-0667","OBJECT_ID":"2023-029AH","EPOCH":"2026-05-28T20:40:06.273408","MEAN_MOTION":13.20772014,"ECCENTRICITY":0.0001844,"INCLINATION":87.9184,"RA_OF_ASC_NODE":278.2819,"ARG_OF_PERICENTER":93.3811,"MEAN_ANOMALY":266.7533,"EPHEMERIS_TYPE":0,"CLASSIFICATION_TYPE":"U","NORAD_CAT_ID":55827,"ELEMENT_SET_NO":999,"REV_AT_EPOCH":15859,"BSTAR":-0.00019303000000000001,"MEAN_MOTION_DOT":-6.5e-07,"MEAN_MOTION_DDOT":0.0},{"OBJECT_NAME":"ONEWEB-0669","OBJECT_ID":"2023-029AJ","EPOCH":"2026-05-28T20:32:48.962400","MEAN_MOTION":13.20769998,"ECCENTRICITY":0.0002454,"INCLINATION":87.9177,"RA_OF_ASC_NODE":278.2958,"ARG_OF_PERICENTER":96.2463,"MEAN_ANOMALY":263.895,"EPHEMERIS_TYPE":0,"CLASSIFICATION_TYPE":"U","NORAD_CAT_ID":55828,"ELEMENT_SET_NO":999,"REV_AT_EPOCH":15859,"BSTAR":-3.347800000000001e-05,"MEAN_MOTION_DOT":-1e-08,"MEAN_MOTION_DDOT":0.0},{"OBJECT_NAME":"ONEWEB-0670","OBJECT_ID":"2023-029AK","EPOCH":"2026-05-28T21:04:51.131712","MEAN_MOTION":13.14501884,"ECCENTRICITY":0.0001943,"INCLINATION":87.8936,"RA_OF_ASC_NODE":293.5932,"ARG_OF_PERICENTER":86.0486,"MEAN_ANOMALY":274.0865,"EPHEMERIS_TYPE":0,"CLASSIFICATION_TYPE":"U","NORAD_CAT_ID":55829,"ELEMENT_SET_NO":999,"REV_AT_EPOCH":15689,"BSTAR":-0.00025257000000000003,"MEAN_MOTION_DOT":-8.1e-07,"MEAN_MOTION_DDOT":0.0},{"OBJECT_NAME":"ONEWEB-0671","OBJECT_ID":"2023-029AL","EPOCH":"2026-05-28T22:59:01.931136","MEAN_MOTION":13.19726911,"ECCENTRICITY":0.0001729,"INCLINATION":87.9151,"RA_OF_ASC_NODE":308.8091,"ARG_OF_PERICENTER":89.1865,"MEAN_ANOMALY":270.9466,"EPHEMERIS_TYPE":0,"CLASSIFICATION_TYPE":"U","NORAD_CAT_ID":55830,"ELEMENT_SET_NO":999,"REV_AT_EPOCH":15636,"BSTAR":3.63e-05,"MEAN_MOTION_DOT":2.7e-07,"MEAN_MOTION_DDOT":0.0},{"OBJECT_NAME":"ONEWEB-0672","OBJECT_ID":"2023-029AM","EPOCH":"2026-05-28T20:25:32.274336","MEAN_MOTION":13.20771411,"ECCENTRICITY":0.0002109,"INCLINATION":87.9179,"RA_OF_ASC_NODE":278.2893,"ARG_OF_PERICENTER":104.3611,"MEAN_ANOMALY":255.7757,"EPHEMERIS_TYPE":0,"CLASSIFICATION_TYPE":"U","NORAD_CAT_ID":55831,"ELEMENT_SET_NO":999,"REV_AT_EPOCH":15859,"BSTAR":-1.7425e-05,"MEAN_MOTION_DOT":6e-08,"MEAN_MOTION_DDOT":0.0},{"OBJECT_NAME":"ONEWEB-0673","OBJECT_ID":"2023-029AN","EPOCH":"2026-05-28T22:26:04.367328","MEAN_MOTION":13.19725492,"ECCENTRICITY":0.0001794,"INCLINATION":87.9163,"RA_OF_ASC_NODE":308.8038,"ARG_OF_PERICENTER":89.8068,"MEAN_ANOMALY":270.327,"EPHEMERIS_TYPE":0,"CLASSIFICATION_TYPE":"U","NORAD_CAT_ID":55832,"ELEMENT_SET_NO":999,"REV_AT_EPOCH":15636,"BSTAR":0.00018339,"MEAN_MOTION_DOT":8.6e-07,"MEAN_MOTION_DDOT":0.0},{"OBJECT_NAME":"ONEWEB-0674","OBJECT_ID":"2023-029AP","EPOCH":"2026-05-28T20:19:12.014976","MEAN_MOTION":13.14503232,"ECCENTRICITY":0.0002004,"INCLINATION":87.8934,"RA_OF_ASC_NODE":293.5765,"ARG_OF_PERICENTER":86.0797,"MEAN_ANOMALY":274.0562,"EPHEMERIS_TYPE":0,"CLASSIFICATION_TYPE":"U","NORAD_CAT_ID":55833,"ELEMENT_SET_NO":999,"REV_AT_EPOCH":15687,"BSTAR":0.0005366699999999999,"MEAN_MOTION_DOT":2.12e-06,"MEAN_MOTION_DDOT":0.0},{"OBJECT_NAME":"ONEWEB-0675","OBJECT_ID":"2023-029AQ","EPOCH":"2026-05-28T20:58:30.081792","MEAN_MOTION":13.19726248,"ECCENTRICITY":0.0001799,"INCLINATION":87.9152,"RA_OF_ASC_NODE":308.8272,"ARG_OF_PERICENTER":104.1374,"MEAN_ANOMALY":255.9959,"EPHEMERIS_TYPE":0,"CLASSIFICATION_TYPE":"U","NORAD_CAT_ID":55834,"ELEMENT_SET_NO":999,"REV_AT_EPOCH":15637,"BSTAR":5.6406e-05,"MEAN_MOTION_DOT":3.6e-07,"MEAN_MOTION_DDOT":0.0}]