ONEWEB-0658             
1 55819U 23029Z   26148.96241308  .00000027  00000+0  34821-4 0  9998
2 55819  87.9161 308.7810 0001358  95.9459 264.1828 13.19726328156383
ONEWEB-0660             
1 55820U 23029AA  26148.94497369  .00000013  00000+0 -55437-6 0  9992
2 55820  87.8953 293.5334 0001701  88.9311 271.2014 13.14501767156879
ONEWEB-0661             
1 55821U 23029AB  26148.82762429 -.00000073  00000+0 -23217-3 0  9997
2 55821  87.8935 293.6048 0001827  88.1445 271.9894 13.14502227156844
ONEWEB-0662             
1 55822U 23029AC  26148.93862550  .00000133  00000+0  32551-3 0  9992
2 55822  87.8934 293.5893 0001696  89.2906 270.8418 13.14501359156901
ONEWEB-0663             
1 55823U 23029AD  26148.92154005 -.00000047  00000+0 -14720-3 0  9995
2 55823  87.9183 278.3423 0001508  90.6210 269.5096 13.20867155158607
ONEWEB-0664             
1 55824U 23029AE  26148.87295047  .00006871  00000+0  16864-1 0  9990
2 55824  87.9168 278.3349 0002138  93.8300 266.3078 13.20736173158591
ONEWEB-0665             
1 55825U 23029AF  26148.90057433 -.00000202  00000+0 -57975-3 0  9994
2 55825  87.8936 293.5711 0001610  89.6617 270.4698 13.14502452156871
ONEWEB-0666             
1 55826U 23029AG  26148.86620881  .00000051  00000+0  92426-4 0  9994
2 55826  87.9169 278.3258 0002236 117.0106 243.1256 13.20769304158600
ONEWEB-0667             
1 55827U 23029AH  26148.86118372 -.00000065  00000+0 -19303-3 0  9991
2 55827  87.9184 278.2819 0001844  93.3811 266.7533 13.20772014158592
ONEWEB-0669             
1 55828U 23029AJ  26148.85612225 -.00000001  00000+0 -33478-4 0  9997
2 55828  87.9177 278.2958 0002454  96.2463 263.8950 13.20769998158590
ONEWEB-0670             
1 55829U 23029AK  26148.87836958 -.00000081  00000+0 -25257-3 0  9994
2 55829  87.8936 293.5932 0001943  86.0486 274.0865 13.14501884156890
ONEWEB-0671             
1 55830U 23029AL  26148.95766124  .00000027  00000+0  36300-4 0  9992
2 55830  87.9151 308.8091 0001729  89.1865 270.9466 13.19726911156364
ONEWEB-0672             
1 55831U 23029AM  26148.85106799  .00000006  00000+0 -17425-4 0  9993
2 55831  87.9179 278.2893 0002109 104.3611 255.7757 13.20771411158595
ONEWEB-0673             
1 55832U 23029AN  26148.93477277  .00000086  00000+0  18339-3 0  9996
2 55832  87.9163 308.8038 0001794  89.8068 270.3270 13.19725492156364
ONEWEB-0674             
1 55833U 23029AP  26148.84666684  .00000212  00000+0  53667-3 0  9993
2 55833  87.8934 293.5765 0002004  86.0797 274.0562 13.14503232156872
ONEWEB-0675             
1 55834U 23029AQ  26148.87395928  .00000036  00000+0  56406-4 0  9996
2 55834  87.9152 308.8272 0001799 104.1374 255.9959 13.19726248156374
